[{"OBJECT_NAME":"DONGPO 08","OBJECT_ID":"2022-167E","EPOCH":"2026-03-09T22:57:52.742880","MEAN_MOTION":15.31542505,"ECCENTRICITY":0.00092155,"INCLINATION":97.6764,"RA_OF_ASC_NODE":233.3854,"ARG_OF_PERICENTER":153.9158,"MEAN_ANOMALY":206.2548,"EPHEMERIS_TYPE":0,"CLASSIFICATION_TYPE":"U","NORAD_CAT_ID":54686,"ELEMENT_SET_NO":999,"REV_AT_EPOCH":18012,"BSTAR":0.0004734784,"MEAN_MOTION_DOT":0.0001437,"MEAN_MOTION_DDOT":0},{"OBJECT_NAME":"STARLINK-32075","OBJECT_ID":"2024-136S","EPOCH":"2026-03-09T08:12:29.134368","MEAN_MOTION":15.30185308,"ECCENTRICITY":0.00013057,"INCLINATION":53.1612,"RA_OF_ASC_NODE":77.1119,"ARG_OF_PERICENTER":89.5137,"MEAN_ANOMALY":270.6014,"EPHEMERIS_TYPE":0,"CLASSIFICATION_TYPE":"U","NORAD_CAT_ID":60345,"ELEMENT_SET_NO":999,"REV_AT_EPOCH":8961,"BSTAR":-1.2369224e-5,"MEAN_MOTION_DOT":-7.25e-6,"MEAN_MOTION_DDOT":0}]
